[{"OBJECT_NAME":"GAOFEN-9 03","OBJECT_ID":"2020-039A","EPOCH":"2026-03-09T21:55:15.121344","MEAN_MOTION":15.30529116,"ECCENTRICITY":0.0013094,"INCLINATION":97.5219,"RA_OF_ASC_NODE":201.2158,"ARG_OF_PERICENTER":77.4533,"MEAN_ANOMALY":282.8172,"EPHEMERIS_TYPE":0,"CLASSIFICATION_TYPE":"U","NORAD_CAT_ID":45794,"ELEMENT_SET_NO":999,"REV_AT_EPOCH":31856,"BSTAR":0.00039258132,"MEAN_MOTION_DOT":0.00011544,"MEAN_MOTION_DDOT":0},{"OBJECT_NAME":"STARLINK-35855","OBJECT_ID":"2025-283P","EPOCH":"2026-03-09T03:49:49.630080","MEAN_MOTION":15.30184766,"ECCENTRICITY":7.796e-5,"INCLINATION":53.1612,"RA_OF_ASC_NODE":26.5806,"ARG_OF_PERICENTER":111.8454,"MEAN_ANOMALY":248.263,"EPHEMERIS_TYPE":0,"CLASSIFICATION_TYPE":"U","NORAD_CAT_ID":66891,"ELEMENT_SET_NO":999,"REV_AT_EPOCH":1576,"BSTAR":0.0010013905,"MEAN_MOTION_DOT":0.00029403,"MEAN_MOTION_DDOT":0}]
